NORAD_CAT_ID,OBJECT_NAME,OBJECT_TYPE,EPOCH,MEAN_MOTION,ECCENTRICITY,INCLINATION,RA_OF_ASC_NODE,ARG_OF_PERICENTER,MEAN_ANOMALY,BSTAR,MEAN_MOTION_DOT,MEAN_MOTION_DDOT,TLE_LINE0,TLE_LINE1,TLE_LINE2,SEMIMAJOR_AXIS,PERIOD,APOGEE,PERIGEE,DECAYED
56817.0,STARLINK-5982,PAYLOAD,2024-05-08 13:31:13,14.98336269,0.0002899,70.0001,234.0043,263.3593,96.7236,2.2996e-05,1.81e-06,0.0,0 STARLINK-5982,1 56817U 23078BC  24129.56334534  .00000181  00000-0  22996-4 0  9990,2 56817  70.0001 234.0043 0002899 263.3593  96.7236 14.98336269 52564,6950.174,96.107,574.053,570.024,0.0
56817.0,STARLINK-5982,PAYLOAD,2024-05-08 16:43:28,14.98338409,0.0002987,70.0003,233.6679,265.8451,94.2366,3.8778e-05,3.7e-06,0.0,0 STARLINK-5982,1 56817U 23078BC  24129.69686306  .00000370  00000-0  38778-4 0  9996,2 56817  70.0003 233.6679 0002987 265.8451  94.2366 14.98338409 52323,6950.167,96.106,574.108,569.956,0.0
56817.0,STARLINK-5982,PAYLOAD,2024-05-09 11:57:06,14.98325471,0.0003177,70.0006,231.647,269.8672,90.2123,6.9805e-05,7.4e-06,0.0,0 STARLINK-5982,1 56817U 23078BC  24130.49798928  .00000740  00000-0  69805-4 0  9996,2 56817  70.0006 231.6470 0003177 269.8672  90.2123 14.98325471 52708,6950.207,96.107,574.28,569.864,0.0
56817.0,STARLINK-5982,PAYLOAD,2024-05-09 13:33:14,14.98325619,0.000311,70.0007,231.4799,270.8585,89.2217,9.6204e-05,1.055e-05,0.0,0 STARLINK-5982,1 56817U 23078BC  24130.56474878  .00001055  00000-0  96204-4 0  9992,2 56817  70.0007 231.4799 0003110 270.8585  89.2217 14.98325619 52451,6950.206,96.107,574.233,569.91,0.0
56817.0,STARLINK-5982,PAYLOAD,2024-05-09 16:45:30,14.98326832,0.0003142,70.0008,231.1434,271.0528,89.0271,0.00010119,1.114e-05,0.0,0 STARLINK-5982,1 56817U 23078BC  24130.69826812  .00001114  00000-0  10119-3 0  9991,2 56817  70.0008 231.1434 0003142 271.0528  89.0271 14.98326832 52478,6950.203,96.107,574.251,569.884,0.0
56817.0,STARLINK-5982,PAYLOAD,2024-05-10 13:35:15,14.98327014,0.000309,70.0011,228.9568,269.1509,90.9296,-4.9273e-05,-6.81e-06,0.0,0 STARLINK-5982,1 56817U 23078BC  24131.56615367 -.00000681  00000-0 -49273-4 0  9993,2 56817  70.0011 228.9568 0003090 269.1509  90.9296 14.98327014 52867,6950.202,96.107,574.215,569.92,0.0
56817.0,STARLINK-5982,PAYLOAD,2024-05-10 15:11:23,14.98329971,0.0003053,70.0009,228.7879,270.1565,89.9244,-5.8328e-05,-7.89e-06,0.0,0 STARLINK-5982,1 56817U 23078BC  24131.63291215 -.00000789  00000-0 -58328-4 0  9993,2 56817  70.0009 228.7879 0003053 270.1565  89.9244 14.98329971 52618,6950.193,96.107,574.18,569.936,0.0
56817.0,STARLINK-5982,PAYLOAD,2024-05-11 10:24:55,14.9838045,0.0002894,70.0012,226.7671,273.1492,86.9335,0.00056286,6.638e-05,0.0,0 STARLINK-5982,1 56817U 23078BC  24132.43397838  .00006638  00000-0  56286-3 0  9997,2 56817  70.0012 226.7671 0002894 273.1492  86.9335 14.98380450 52992,6950.037,96.104,573.913,569.891,0.0
56817.0,STARLINK-5982,PAYLOAD,2024-05-11 16:49:30,14.98338197,0.0002383,70.0011,226.095,264.2701,95.8186,3.919e-05,3.75e-06,0.0,0 STARLINK-5982,1 56817U 23078BC  24132.70104909  .00000375  00000-0  39190-4 0  9990,2 56817  70.0011 226.0950 0002383 264.2701  95.8186 14.98338197 53031,6950.168,96.106,573.689,570.376,0.0
56817.0,STARLINK-5982,PAYLOAD,2024-05-11 23:14:07,14.98299779,0.0001191,70.0002,225.4188,353.0704,7.0439,-0.00041835,-5.076e-05,0.0,0 STARLINK-5982,1 56817U 23078BC  24132.96813660 -.00005076  00000-0 -41835-3 0  9992,2 56817  70.0002 225.4188 0001191 353.0704   7.0439 14.98299779 53075,6950.286,96.109,572.979,571.324,0.0
56817.0,STARLINK-5982,PAYLOAD,2024-05-12 12:03:14,14.98264539,0.0003084,70.0001,224.0739,274.7713,85.3093,-0.00067034,-8.069e-05,0.0,0 STARLINK-5982,1 56817U 23078BC  24133.50224998 -.00008069  00000-0 -67034-3 0  9997,2 56817  70.0001 224.0739 0003084 274.7713  85.3093 14.98264539 53153,6950.395,96.111,574.404,570.117,0.0
56817.0,STARLINK-5982,PAYLOAD,2024-05-12 13:39:22,14.98265102,0.0003082,70.0001,223.9054,275.907,84.1738,-0.00065585,-7.897e-05,0.0,0 STARLINK-5982,1 56817U 23078BC  24133.56901189 -.00007897  00000-0 -65585-3 0  9994,2 56817  70.0001 223.9054 0003082 275.9070  84.1738 14.98265102 52900,6950.394,96.111,574.401,570.116,0.0
56817.0,STARLINK-5982,PAYLOAD,2024-05-12 15:15:30,14.98265518,0.0003071,70.0002,223.7371,276.4482,83.6327,-0.00064118,-7.722e-05,0.0,0 STARLINK-5982,1 56817U 23078BC  24133.63577369 -.00007722  00000-0 -64118-3 0  9999,2 56817  70.0002 223.7371 0003071 276.4482  83.6327 14.98265518 52912,6950.392,96.111,574.392,570.123,0.0
56817.0,STARLINK-5982,PAYLOAD,2024-05-13 05:40:40,14.98339695,0.0003212,70.0012,222.2201,260.8169,99.2627,-0.00057254,-6.92e-05,0.0,0 STARLINK-5982,1 56817U 23078BC  24134.23657434 -.00006920  00000-0 -57254-3 0  9990,2 56817  70.0012 222.2201 0003212 260.8169  99.2627 14.98339695 53268,6950.163,96.106,574.26,569.796,0.0
56817.0,STARLINK-5982,PAYLOAD,2024-05-13 12:05:11,14.9835343,0.0002793,69.9999,221.5464,267.8154,92.2686,-0.0003919,-4.769e-05,0.0,0 STARLINK-5982,1 56817U 23078BC  24134.50360043 -.00004769  00000-0 -39190-3 0  9995,2 56817  69.9999 221.5464 0002793 267.8154  92.2686 14.98353430 53302,6950.12,96.105,573.927,570.044,0.0
56817.0,STARLINK-5982,PAYLOAD,2024-05-13 15:17:27,14.983465,0.0001838,70.0025,221.2118,249.8194,110.2767,-0.00037857,-4.609e-05,0.0,0 STARLINK-5982,1 56817U 23078BC  24134.63712431 -.00004609  00000-0 -37857-3 0  9992,2 56817  70.0025 221.2118 0001838 249.8194 110.2767 14.98346500 53065,6950.142,96.106,573.284,570.729,0.0
56817.0,STARLINK-5982,PAYLOAD,2024-05-14 12:07:11,14.98317519,0.0002951,70.0001,219.024,275.2513,84.8309,0.00082924,9.812e-05,0.0,0 STARLINK-5982,1 56817U 23078BC  24135.50499259  .00009812  00000-0  82924-3 0  9993,2 56817  70.0001 219.0240 0002951 275.2513  84.8309 14.98317519 53195,6950.231,96.108,574.148,570.045,0.0
56817.0,STARLINK-5982,PAYLOAD,2024-05-15 12:09:12,14.98348425,0.0003096,70.0,216.4996,272.7122,87.3682,3.0534e-05,2.71e-06,0.0,0 STARLINK-5982,1 56817U 23078BC  24136.50639139  .00000271  00000-0  30534-4 0  9998,2 56817  70.0000 216.4996 0003096 272.7122  87.3682 14.98348425 53600,6950.136,96.106,574.153,569.849,0.0
56817.0,STARLINK-5982,PAYLOAD,2024-05-15 13:45:20,14.98346724,0.0002702,70.0011,216.3332,261.258,98.8273,4.2441e-05,4.14e-06,0.0,0 STARLINK-5982,1 56817U 23078BC  24136.57315079  .00000414  00000-0  42441-4 0  9998,2 56817  70.0011 216.3332 0002702 261.2580  98.8273 14.98346724 53354,6950.141,96.106,573.884,570.128,0.0
56817.0,STARLINK-5982,PAYLOAD,2024-05-15 15:21:28,14.98348857,0.0002818,70.0008,216.1645,266.4911,93.5926,5.453e-05,5.58e-06,0.0,0 STARLINK-5982,1 56817U 23078BC  24136.63990841  .00000558  00000-0  54530-4 0  9992,2 56817  70.0008 216.1645 0002818 266.4911  93.5926 14.98348857 53365,6950.135,96.106,573.958,570.041,0.0
56817.0,STARLINK-5982,PAYLOAD,2024-05-16 12:11:11,14.9838311,0.0001918,70.0018,213.9786,252.1683,107.9267,-0.00053192,-6.442e-05,0.0,0 STARLINK-5982,1 56817U 23078BC  24137.50776948 -.00006442  00000-0 -53192-3 0  9991,2 56817  70.0018 213.9786 0001918 252.1683 107.9267 14.98383110 53757,6950.029,96.104,573.227,570.561,0.0
56817.0,STARLINK-5982,PAYLOAD,2024-05-16 21:47:59,14.98352716,0.0003089,69.9996,212.9653,272.769,87.3115,-2.7905e-05,-4.26e-06,0.0,0 STARLINK-5982,1 56817U 23078BC  24137.90832949 -.00000426  00000-0 -27905-4 0  9999,2 56817  69.9996 212.9653 0003089 272.7690  87.3115 14.98352716 53557,6950.123,96.106,574.135,569.841,0.0
56817.0,STARLINK-5982,PAYLOAD,2024-05-17 12:13:12,14.98336806,0.0002756,70.0019,211.457,248.6322,111.4543,-0.00010553,-1.352e-05,0.0,0 STARLINK-5982,1 56817U 23078BC  24138.50917733 -.00001352  00000-0 -10553-3 0  9990,2 56817  70.0019 211.4570 0002756 248.6322 111.4543 14.98336806 53907,6950.172,96.107,573.952,570.121,0.0
56817.0,STARLINK-5982,PAYLOAD,2024-05-17 21:50:01,14.98333928,0.0002488,70.0018,210.4372,284.5466,75.5417,-0.00017854,-2.223e-05,0.0,0 STARLINK-5982,1 56817U 23078BC  24138.90974140 -.00002223  00000-0 -17854-3 0  9998,2 56817  70.0018 210.4372 0002488 284.5466  75.5417 14.98333928 53705,6950.181,96.107,573.775,570.317,0.0
56817.0,STARLINK-5982,PAYLOAD,2024-05-18 12:15:14,14.98332601,0.0002739,70.0,208.9265,267.9477,92.1368,-0.00014542,-1.828e-05,0.0,0 STARLINK-5982,1 56817U 23078BC  24139.51058093 -.00001828  00000-0 -14542-3 0  9997,2 56817  70.0000 208.9265 0002739 267.9477  92.1368 14.98332601 54051,6950.185,96.107,573.954,570.146,0.0
56817.0,STARLINK-5982,PAYLOAD,2024-05-18 13:51:21,14.9833835,0.0003164,69.9987,208.7561,273.2455,86.8342,-9.5304e-05,-1.23e-05,0.0,0 STARLINK-5982,1 56817U 23078BC  24139.57733496 -.00001230  00000-0 -95304-4 0  9993,2 56817  69.9987 208.7561 0003164 273.2455  86.8342 14.98338350 53809,6950.167,96.106,574.231,569.833,0.0
56817.0,STARLINK-5982,PAYLOAD,2024-05-18 21:52:02,14.98334949,0.0002968,69.9993,207.9136,271.5214,88.5605,-0.00021946,-2.711e-05,0.0,0 STARLINK-5982,1 56817U 23078BC  24139.91113949 -.00002711  00000-0 -21946-3 0  9991,2 56817  69.9993 207.9136 0002968 271.5214  88.5605 14.98334949 53856,6950.178,96.107,574.105,569.98,0.0
56817.0,STARLINK-5982,PAYLOAD,2024-05-19 04:16:35,14.98315979,0.0002387,70.0005,207.2425,265.4397,94.649,-2.5173e-05,-3.93e-06,0.0,0 STARLINK-5982,1 56817U 23078BC  24140.17818918 -.00000393  00000-0 -25173-4 0  9990,2 56817  70.0005 207.2425 0002387 265.4397  94.6490 14.98315979 54152,6950.236,96.108,573.76,570.442,0.0
56817.0,STARLINK-5982,PAYLOAD,2024-05-19 13:53:24,14.98309726,0.0002335,70.0013,206.2325,261.1959,98.8935,-7.8822e-05,-1.033e-05,0.0,0 STARLINK-5982,1 56817U 23078BC  24140.57875907 -.00001033  00000-0 -78822-4 0  9996,2 56817  70.0013 206.2325 0002335 261.1959  98.8935 14.98309726 53959,6950.256,96.108,573.743,570.498,0.0
56817.0,STARLINK-5982,PAYLOAD,2024-05-20 04:18:36,14.98326925,0.0002858,69.9999,204.7187,266.4525,93.6307,0.00012458,1.394e-05,0.0,0 STARLINK-5982,1 56817U 23078BC  24141.17958482  .00001394  00000-0  12458-3 0  9993,2 56817  69.9999 204.7187 0002858 266.4525  93.6307 14.98326925 54301,6950.202,96.107,574.054,570.081,0.0
